OBJECT_NAME,OBJECT_ID,EPOCH,MEAN_MOTION,ECCENTRICITY,INCLINATION,RA_OF_ASC_NODE,ARG_OF_PERICENTER,MEAN_ANOMALY,EPHEMERIS_TYPE,CLASSIFICATION_TYPE,NORAD_CAT_ID,ELEMENT_SET_NO,REV_AT_EPOCH,BSTAR,MEAN_MOTION_DOT,MEAN_MOTION_DDOT
STARLINK-31555,2024-060D,2026-03-14T17:42:11.142144,15.27577309,.00010442,42.9998,231.4497,277.8027,82.2706,0,U,59351,999,11088,.34156208E-4,.678E-5,0
STARLINK-31561,2024-060E,2026-03-14T12:02:21.696000,15.27581407,.00018028,43.0010,232.2606,287.1221,72.9433,0,U,59352,999,11080,.3236805E-4,.629E-5,0
STARLINK-31413,2024-060F,2026-03-14T18:39:19.870848,15.27578907,.00016541,42.9991,230.8908,278.6076,81.4589,0,U,59353,999,11084,.10615918E-3,.266E-4,0
STARLINK-31422,2024-060G,2026-03-14T21:21:58.019904,15.27567424,.00019156,43.0050,230.8818,275.8034,84.2599,0,U,59354,999,11085,-.7057595E-5,-.457E-5,0
STARLINK-31416,2024-060H,2026-03-14T19:10:48.897120,15.27566758,.0001331,43.0005,231.0530,281.4164,78.6538,0,U,59355,999,11084,.6423793E-5,-.85E-6,0
STARLINK-31552,2024-060J,2026-03-14T11:51:28.640736,15.27572742,.00023095,43.0039,233.0809,288.8084,71.2517,0,U,59356,999,11079,.65745912E-4,.1547E-4,0
STARLINK-31557,2024-060K,2026-03-14T19:33:27.358272,15.27599482,.00016997,43.0028,226.8176,267.1192,92.9466,0,U,59357,999,11089,.10928951E-3,.2748E-4,0
STARLINK-31559,2024-060L,2026-03-14T17:16:17.009184,15.27579942,.00010641,42.9990,231.3156,277.3462,82.7269,0,U,59358,999,11083,.57964121E-4,.1333E-4,0
STARLINK-31501,2024-060M,2026-03-14T19:31:06.724992,15.27601676,.00011456,43.0030,231.1624,269.2915,90.7805,0,U,59359,999,11084,.10419959E-3,.2608E-4,0
STARLINK-31549,2024-060N,2026-03-14T12:17:09.649536,15.27579157,.00019517,43.0028,232.3391,275.1033,84.9595,0,U,59360,999,11080,.31817005E-4,.613E-5,0
STARLINK-31560,2024-060P,2026-03-14T19:21:53.318304,15.27596186,.0001369,43.0002,231.1076,274.6201,85.4494,0,U,59361,999,11084,.23504593E-3,.6214E-4,0
STARLINK-31571,2024-060Q,2026-03-14T19:25:34.336416,15.27597854,.00019689,43.0038,231.1273,279.3635,80.6995,0,U,59362,999,11084,.99014335E-4,.2465E-4,0
STARLINK-31553,2024-060R,2026-03-14T11:19:33.358368,15.27572567,.00015152,43.0042,225.9620,276.0006,84.0673,0,U,59363,999,11087,.17714684E-4,.225E-5,0
STARLINK-31547,2024-060S,2026-03-14T18:52:18.503328,15.27585495,.00011649,43.0027,219.7133,275.1490,84.9229,0,U,59364,999,11097,.68946211E-4,.1636E-4,0
STARLINK-31537,2024-060T,2026-03-14T19:36:41.471424,15.27592193,.00014268,43.0032,231.1861,274.2649,85.8040,0,U,59365,999,11084,.1798641E-3,.4692E-4,0
STARLINK-31451,2024-060U,2026-03-14T10:37:27.481152,15.27578777,.00021279,43.0039,232.6798,291.5810,68.4815,0,U,59366,999,11079,.4489168E-4,.973E-5,0
STARLINK-31428,2024-060V,2026-03-14T17:10:43.363488,15.27586399,.00015004,43.0002,231.2846,254.9797,105.0889,0,U,59367,999,11083,.78184738E-4,.189E-4,0
STARLINK-31419,2024-060W,2026-03-14T18:54:08.210592,15.27581991,.00018159,43.0003,230.9595,264.0749,95.9896,0,U,59368,999,11084,.77563636E-4,.1873E-4,0
STARLINK-31583,2024-060X,2026-03-14T17:58:52.098240,15.27575259,.00014006,42.9998,220.2890,269.7095,90.3596,0,U,59369,999,11096,.7545731E-5,-.54E-6,0
STARLINK-31461,2024-060Y,2026-03-14T10:24:44.817120,15.27574499,.00015824,43.0028,222.2232,275.1906,84.8765,0,U,59370,999,11085,.9976874E-5,.12E-6,0
STARLINK-31641,2024-062A,2026-03-14T17:36:37.518048,15.30196417,.00009697,53.1594,235.0815,77.6120,282.4989,0,U,59374,999,11039,.26598633E-4,.429E-5,0
STARLINK-31430,2024-062B,2026-03-14T15:51:53.829216,15.30219139,.00011456,53.1591,235.3238,62.4438,297.6679,0,U,59375,999,11039,.70043201E-4,.1717E-4,0
STARLINK-31695,2024-062C,2026-03-14T17:37:13.318752,15.30194954,.00011505,53.1605,232.2418,92.9964,267.1168,0,U,59376,999,11040,.13992265E-4,.55E-6,0
STARLINK-31716,2024-062D,2026-03-14T16:49:21.482112,15.30202590,.00011691,53.1595,183.7378,93.4008,266.7127,0,U,59377,999,11107,-.12287806E-4,-.723E-5,0
STARLINK-31710,2024-062E,2026-03-14T22:34:33.676320,15.30193350,.00009772,53.1594,231.3927,99.5714,260.5397,0,U,59378,999,11043,.11320549E-3,.2995E-4,0
STARLINK-31698,2024-062F,2026-03-14T17:32:39.954336,15.30192818,.0000995,53.1595,232.2338,84.3643,275.7471,0,U,59379,999,11040,.24051351E-4,.353E-5,0
STARLINK-31680,2024-062G,2026-03-14T20:43:12.379872,15.30200688,.00009572,53.1591,234.4629,68.9432,291.1671,0,U,59380,999,11038,.28699722E-4,.491E-5,0
STARLINK-31713,2024-062H,2026-03-14T17:16:52.218048,15.30195962,.00010503,53.1597,234.9949,79.5744,280.5375,0,U,59381,999,11036,.17850262E-4,.17E-5,0
STARLINK-31705,2024-062J,2026-03-14T20:55:57.844992,15.30194108,.00013073,53.1588,231.6771,91.7886,268.3264,0,U,59382,999,11042,.5431275E-5,-.198E-5,0
