STARLINK-31555          
1 59351U 24060D   26073.73762896  .00000678  00000+0  34156-4 0  9994
2 59351  42.9998 231.4497 0001044 277.8027  82.2706 15.27577309110887
STARLINK-31561          
1 59352U 24060E   26073.50164000  .00000629  00000+0  32368-4 0  9992
2 59352  43.0010 232.2606 0001802 287.1221  72.9433 15.27581407110807
STARLINK-31413          
1 59353U 24060F   26073.77731332  .00002660  00000+0  10616-3 0  9998
2 59353  42.9991 230.8908 0001654 278.6076  81.4589 15.27578907110843
STARLINK-31422          
1 59354U 24060G   26073.89025486 -.00000457  00000+0 -70576-5 0  9995
2 59354  43.0050 230.8818 0001915 275.8034  84.2599 15.27567424110850
STARLINK-31416          
1 59355U 24060H   26073.79917705 -.00000085  00000+0  64238-5 0  9993
2 59355  43.0005 231.0530 0001331 281.4164  78.6538 15.27566758110842
STARLINK-31552          
1 59356U 24060J   26073.49408149  .00001547  00000+0  65746-4 0  9995
2 59356  43.0039 233.0809 0002309 288.8084  71.2517 15.27572742110799
STARLINK-31557          
1 59357U 24060K   26073.81489998  .00002748  00000+0  10929-3 0  9999
2 59357  43.0028 226.8176 0001699 267.1192  92.9466 15.27599482110890
STARLINK-31559          
1 59358U 24060L   26073.71964131  .00001333  00000+0  57964-4 0  9996
2 59358  42.9990 231.3156 0001064 277.3462  82.7269 15.27579942110836
STARLINK-31501          
1 59359U 24060M   26073.81327228  .00002608  00000+0  10420-3 0  9999
2 59359  43.0030 231.1624 0001145 269.2915  90.7805 15.27601676110841
STARLINK-31549          
1 59360U 24060N   26073.51191724  .00000613  00000+0  31817-4 0  9996
2 59360  43.0028 232.3391 0001951 275.1033  84.9595 15.27579157110801
STARLINK-31560          
1 59361U 24060P   26073.80686711  .00006214  00000+0  23505-3 0  9991
2 59361  43.0002 231.1076 0001369 274.6201  85.4494 15.27596186110844
STARLINK-31571          
1 59362U 24060Q   26073.80942519  .00002465  00000+0  99014-4 0  9996
2 59362  43.0038 231.1273 0001968 279.3635  80.6995 15.27597854110847
STARLINK-31553          
1 59363U 24060R   26073.47191387  .00000225  00000+0  17715-4 0  9999
2 59363  43.0042 225.9620 0001515 276.0006  84.0673 15.27572567110872
STARLINK-31547          
1 59364U 24060S   26073.78632527  .00001636  00000+0  68946-4 0  9999
2 59364  43.0027 219.7133 0001164 275.1490  84.9229 15.27585495110974
STARLINK-31537          
1 59365U 24060T   26073.81714666  .00004692  00000+0  17986-3 0  9991
2 59365  43.0032 231.1861 0001426 274.2649  85.8040 15.27592193110844
STARLINK-31451          
1 59366U 24060U   26073.44267918  .00000973  00000+0  44892-4 0  9999
2 59366  43.0039 232.6798 0002127 291.5810  68.4815 15.27578777110791
STARLINK-31428          
1 59367U 24060V   26073.71577967  .00001890  00000+0  78185-4 0  9999
2 59367  43.0002 231.2846 0001500 254.9797 105.0889 15.27586399110835
STARLINK-31419          
1 59368U 24060W   26073.78759503  .00001873  00000+0  77564-4 0  9996
2 59368  43.0003 230.9595 0001815 264.0749  95.9896 15.27581991110841
STARLINK-31583          
1 59369U 24060X   26073.74921410 -.00000054  00000+0  75457-5 0  9992
2 59369  42.9998 220.2890 0001400 269.7095  90.3596 15.27575259110968
STARLINK-31461          
1 59370U 24060Y   26073.43385205  .00000012  00000+0  99769-5 0  9991
2 59370  43.0028 222.2232 0001582 275.1906  84.8765 15.27574499110850
STARLINK-31641          
1 59374U 24062A   26073.73376757  .00000429  00000+0  26599-4 0  9994
2 59374  53.1594 235.0815 0000969  77.6120 282.4989 15.30196417110391
STARLINK-31430          
1 59375U 24062B   26073.66103969  .00001717  00000+0  70043-4 0  9994
2 59375  53.1591 235.3238 0001145  62.4438 297.6679 15.30219139110393
STARLINK-31695          
1 59376U 24062C   26073.73418193  .00000055  00000+0  13992-4 0  9995
2 59376  53.1605 232.2418 0001150  92.9964 267.1168 15.30194954110408
STARLINK-31716          
1 59377U 24062D   26073.70094308 -.00000723  00000+0 -12288-4 0  9992
2 59377  53.1595 183.7378 0001169  93.4008 266.7127 15.30202590111077
STARLINK-31710          
1 59378U 24062E   26073.94066755  .00002995  00000+0  11321-3 0  9991
2 59378  53.1594 231.3927 0000977  99.5714 260.5397 15.30193350110437
STARLINK-31698          
1 59379U 24062F   26073.73101799  .00000353  00000+0  24051-4 0  9998
2 59379  53.1595 232.2338 0000995  84.3643 275.7471 15.30192818110404
STARLINK-31680          
1 59380U 24062G   26073.86333773  .00000491  00000+0  28700-4 0  9991
2 59380  53.1591 234.4629 0000957  68.9432 291.1671 15.30200688110387
STARLINK-31713          
1 59381U 24062H   26073.72004882  .00000170  00000+0  17850-4 0  9991
2 59381  53.1597 234.9949 0001050  79.5744 280.5375 15.30195962110362
STARLINK-31705          
1 59382U 24062J   26073.87219728 -.00000198  00000+0  54313-5 0  9992
2 59382  53.1588 231.6771 0001307  91.7886 268.3264 15.30194108110427
